NORAD_CAT_ID,OBJECT_NAME,OBJECT_TYPE,EPOCH,MEAN_MOTION,ECCENTRICITY,INCLINATION,RA_OF_ASC_NODE,ARG_OF_PERICENTER,MEAN_ANOMALY,BSTAR,MEAN_MOTION_DOT,MEAN_MOTION_DDOT,TLE_LINE0,TLE_LINE1,TLE_LINE2,SEMIMAJOR_AXIS,PERIOD,APOGEE,PERIGEE,DECAYED
52843.0,STARLINK-4188,PAYLOAD,2024-04-22 17:43:24,15.08866493,0.0001414,53.2174,233.4681,84.4209,275.6945,0.00037443,5.68e-05,0.0,0 STARLINK-4188,1 52843U 22062P   24113.73847240  .00005680  00000-0  37443-3 0  9993,2 52843  53.2174 233.4681 0001414  84.4209 275.6945 15.08866493102720,6917.799,95.436,540.643,538.686,0.0
52843.0,STARLINK-4188,PAYLOAD,2024-04-23 12:48:02,15.08834466,0.0001549,53.2162,229.9051,109.4153,250.7007,-0.00035589,-5.947e-05,0.0,0 STARLINK-4188,1 52843U 22062P   24114.53336698 -.00005947  00000-0 -35589-3 0  9999,2 52843  53.2162 229.9051 0001549 109.4153 250.7007 15.08834466102844,6917.897,95.438,540.834,538.691,0.0
52843.0,STARLINK-4188,PAYLOAD,2024-04-23 14:23:25,15.08836487,0.0001645,53.2169,229.6071,110.5649,249.552,-0.00030652,-5.163e-05,0.0,0 STARLINK-4188,1 52843U 22062P   24114.59960617 -.00005163  00000-0 -30652-3 0  9995,2 52843  53.2169 229.6071 0001645 110.5649 249.5520 15.08836487102368,6917.891,95.438,540.894,538.618,0.0
52843.0,STARLINK-4188,PAYLOAD,2024-04-24 14:14:13,15.08849891,0.000153,53.2161,225.1436,110.5593,249.5563,6.568e-05,7.58e-06,0.0,0 STARLINK-4188,1 52843U 22062P   24115.59320618  .00000758  00000-0  65680-4 0  9990,2 52843  53.2161 225.1436 0001530 110.5593 249.5563 15.08849891102514,6917.85,95.437,540.774,538.657,0.0
52843.0,STARLINK-4188,PAYLOAD,2024-04-25 12:29:37,15.0883877,0.0001477,53.2169,220.9862,97.9375,262.1785,0.00025056,3.702e-05,0.0,0 STARLINK-4188,1 52843U 22062P   24116.52057858  .00003702  00000-0  25056-3 0  9991,2 52843  53.2169 220.9862 0001477  97.9375 262.1785 15.08838770103145,6917.884,95.438,540.771,538.727,0.0
52843.0,STARLINK-4188,PAYLOAD,2024-04-26 12:20:24,15.08854479,0.0001673,53.2167,216.5269,119.9405,240.1753,0.00013853,1.918e-05,0.0,0 STARLINK-4188,1 52843U 22062P   24117.51416780  .00001918  00000-0  13853-3 0  9993,2 52843  53.2167 216.5269 0001673 119.9405 240.1753 15.08854479103293,6917.836,95.437,540.858,538.544,0.0
52843.0,STARLINK-4188,PAYLOAD,2024-04-26 15:31:09,15.0886218,0.0002638,53.2176,215.9328,140.2095,219.9091,9.661e-05,1.25e-05,0.0,0 STARLINK-4188,1 52843U 22062P   24117.64664041  .00001250  00000-0  96610-4 0  9994,2 52843  53.2176 215.9328 0002638 140.2095 219.9091 15.08862180102821,6917.813,95.436,541.503,537.853,0.0
52843.0,STARLINK-4188,PAYLOAD,2024-04-27 12:11:10,15.08858649,0.0001749,53.2168,212.0673,107.5998,252.5186,0.00015122,2.121e-05,0.0,0 STARLINK-4188,1 52843U 22062P   24118.50775848  .00002121  00000-0  15122-3 0  9994,2 52843  53.2168 212.0673 0001749 107.5998 252.5186 15.08858649103445,6917.823,95.436,540.898,538.478,0.0
52843.0,STARLINK-4188,PAYLOAD,2024-04-27 13:46:32,15.08869562,0.00014,53.2162,211.7646,112.2472,247.8669,0.00031206,4.686e-05,0.0,0 STARLINK-4188,1 52843U 22062P   24118.57399119  .00004686  00000-0  31206-3 0  9993,2 52843  53.2162 211.7646 0001400 112.2472 247.8669 15.08869562102964,6917.79,95.436,540.624,538.687,0.0
52843.0,STARLINK-4188,PAYLOAD,2024-04-27 23:18:53,15.08837665,0.0001851,53.2182,209.9827,103.8915,256.2284,-8.6223e-05,-1.66e-05,0.0,0 STARLINK-4188,1 52843U 22062P   24118.97144783 -.00001660  00000-0 -86223-4 0  9993,2 52843  53.2182 209.9827 0001851 103.8915 256.2284 15.08837665103512,6917.888,95.438,541.033,538.472,0.0
52843.0,STARLINK-4188,PAYLOAD,2024-04-28 12:01:59,15.08813656,0.0001172,53.214,207.6054,84.0233,276.0892,-0.00058066,-9.51e-05,0.0,0 STARLINK-4188,1 52843U 22062P   24119.50137791 -.00009510  00000-0 -58066-3 0  9999,2 52843  53.2140 207.6054 0001172  84.0233 276.0892 15.08813656103599,6917.961,95.439,540.637,539.015,0.0
52843.0,STARLINK-4188,PAYLOAD,2024-04-28 13:37:22,15.08822461,0.0001261,53.2156,207.3078,83.7389,276.3747,-0.0003546,-5.924e-05,0.0,0 STARLINK-4188,1 52843U 22062P   24119.56761624 -.00005924  00000-0 -35460-3 0  9991,2 52843  53.2156 207.3078 0001261  83.7389 276.3747 15.08822461103110,6917.934,95.439,540.671,538.927,0.0
52843.0,STARLINK-4188,PAYLOAD,2024-04-29 11:52:46,15.08844038,0.0001309,53.2146,203.1452,75.0398,285.0739,0.00069146,0.00010735,0.0,0 STARLINK-4188,1 52843U 22062P   24120.49498142  .00010735  00000-0  69146-3 0  9999,2 52843  53.2146 203.1452 0001309  75.0398 285.0739 15.08844038103747,6917.868,95.437,540.639,538.827,0.0
52843.0,STARLINK-4188,PAYLOAD,2024-04-30 05:22:00,15.08851349,0.0001553,53.2144,199.875,75.2237,284.8927,0.00041477,6.321e-05,0.0,0 STARLINK-4188,1 52843U 22062P   24121.22362091  .00006321  00000-0  41477-3 0  9997,2 52843  53.2144 199.8750 0001553  75.2237 284.8927 15.08851349103853,6917.846,95.437,540.785,538.636,0.0
52843.0,STARLINK-4188,PAYLOAD,2024-04-30 11:43:33,15.08855562,0.0001533,53.2153,198.6853,76.1056,284.0106,0.0004591,7.029e-05,0.0,0 STARLINK-4188,1 52843U 22062P   24121.48857853  .00007029  00000-0  45910-3 0  9992,2 52843  53.2153 198.6853 0001533  76.1056 284.0106 15.08855562103404,6917.833,95.437,540.758,538.637,0.0
52843.0,STARLINK-4188,PAYLOAD,2024-05-02 05:03:34,15.08853641,0.0001506,53.2155,190.9513,70.8941,289.2214,0.00060552,9.366e-05,0.0,0 STARLINK-4188,1 52843U 22062P   24123.21082017  .00009366  00000-0  60552-3 0  9992,2 52843  53.2155 190.9513 0001506  70.8941 289.2214 15.08853641104154,6917.839,95.437,540.746,538.662,0.0
52843.0,STARLINK-4188,PAYLOAD,2024-05-02 11:25:07,15.08845156,0.0001265,53.2156,189.7638,87.2719,272.8418,0.00015503,2.181e-05,0.0,0 STARLINK-4188,1 52843U 22062P   24123.47577828  .00002181  00000-0  15503-3 0  9993,2 52843  53.2156 189.7638 0001265  87.2719 272.8418 15.08845156103702,6917.865,95.437,540.605,538.855,0.0
52843.0,STARLINK-4188,PAYLOAD,2024-05-02 20:57:25,15.08858876,0.0001249,53.2153,187.9786,90.3459,269.7676,0.0003697,5.604e-05,0.0,0 STARLINK-4188,1 52843U 22062P   24123.87321164  .00005604  00000-0  36970-3 0  9991,2 52843  53.2153 187.9786 0001249  90.3459 269.7676 15.08858876104256,6917.823,95.436,540.552,538.824,0.0
52843.0,STARLINK-4188,PAYLOAD,2024-05-03 11:15:53,15.08839077,0.0001196,53.2153,185.3014,78.7793,281.3333,-0.000259,-4.407e-05,0.0,0 STARLINK-4188,1 52843U 22062P   24124.46937131 -.00004407  00000-0 -25900-3 0  9997,2 52843  53.2153 185.3014 0001196  78.7793 281.3333 15.08839077104346,6917.883,95.438,540.576,538.921,0.0
52843.0,STARLINK-4188,PAYLOAD,2024-05-03 14:26:39,15.08837019,0.0001183,53.2155,184.7072,80.0889,280.0237,-0.00027722,-4.697e-05,0.0,0 STARLINK-4188,1 52843U 22062P   24124.60185178 -.00004697  00000-0 -27722-3 0  9994,2 52843  53.2155 184.7072 0001183  80.0889 280.0237 15.08837019103873,6917.89,95.438,540.573,538.936,0.0
52843.0,STARLINK-4188,PAYLOAD,2024-05-03 20:48:12,15.08832632,0.0001157,53.2147,183.5174,81.3928,278.7195,-0.00030889,-5.199e-05,0.0,0 STARLINK-4188,1 52843U 22062P   24124.86681374 -.00005199  00000-0 -30889-3 0  9997,2 52843  53.2147 183.5174 0001157  81.3928 278.7195 15.08832632103911,6917.903,95.438,540.568,538.968,0.0
52843.0,STARLINK-4188,PAYLOAD,2024-05-04 12:42:04,15.08831361,0.0001197,53.2148,180.5441,82.0121,278.1006,-0.00012476,-2.272e-05,0.0,0 STARLINK-4188,1 52843U 22062P   24125.52921977 -.00002272  00000-0 -12476-3 0  9998,2 52843  53.2148 180.5441 0001197  82.0121 278.1006 15.08831361104502,6917.907,95.438,540.6,538.944,0.0
52843.0,STARLINK-4188,PAYLOAD,2024-05-05 12:32:52,15.08835816,0.000117,53.2143,176.0838,78.3044,281.8079,0.00038767,5.887e-05,0.0,0 STARLINK-4188,1 52843U 22062P   24126.52282718  .00005887  00000-0  38767-3 0  9996,2 52843  53.2143 176.0838 0001170  78.3044 281.8079 15.08835816104162,6917.893,95.438,540.568,538.949,0.0
52843.0,STARLINK-4188,PAYLOAD,2024-05-05 20:29:47,15.08841724,0.0001191,53.2144,174.5969,77.8204,282.2921,0.00044215,6.756e-05,0.0,0 STARLINK-4188,1 52843U 22062P   24126.85402687  .00006756  00000-0  44215-3 0  9992,2 52843  53.2144 174.5969 0001191  77.8204 282.2921 15.08841724104702,6917.875,95.437,540.564,538.916,0.0
52843.0,STARLINK-4188,PAYLOAD,2024-05-06 09:12:52,15.08859256,0.0001181,53.214,172.218,75.8562,284.2561,0.00075405,0.00011739,0.0,0 STARLINK-4188,1 52843U 22062P   24127.38394161  .00011739  00000-0  75405-3 0  9990,2 52843  53.2140 172.2180 0001181  75.8562 284.2561 15.08859256104297,6917.822,95.436,540.504,538.87,0.0
52843.0,STARLINK-4188,PAYLOAD,2024-05-06 20:20:34,15.08857163,0.0001217,53.2134,170.1373,71.0285,289.0839,0.0004978,7.647e-05,0.0,0 STARLINK-4188,1 52843U 22062P   24127.84761879  .00007647  00000-0  49780-3 0  9995,2 52843  53.2134 170.1373 0001217  71.0285 289.0839 15.08857163104365,6917.828,95.436,540.535,538.851,0.0
52843.0,STARLINK-4188,PAYLOAD,2024-05-07 12:14:25,15.08846936,0.0001309,53.2143,167.1632,74.2228,285.8909,0.0001424,1.98e-05,0.0,0 STARLINK-4188,1 52843U 22062P   24128.51001892  .00001980  00000-0  14240-3 0  9999,2 52843  53.2143 167.1632 0001309  74.2228 285.8909 15.08846936104956,6917.859,95.437,540.63,538.819,0.0
52843.0,STARLINK-4188,PAYLOAD,2024-05-08 05:43:41,15.08818549,0.0001192,53.2144,163.8897,97.98,262.1328,0.00071742,0.00011142,0.0,0 STARLINK-4188,1 52843U 22062P   24129.23867443  .00011142  00000-0  71742-3 0  9992,2 52843  53.2144 163.8897 0001192  97.9800 262.1328 15.08818549105066,6917.946,95.439,540.636,538.986,0.0
52843.0,STARLINK-4188,PAYLOAD,2024-05-08 08:54:26,15.08841086,0.0001315,53.2155,163.2949,88.154,271.9603,3.6442e-05,2.92e-06,0.0,0 STARLINK-4188,1 52843U 22062P   24129.37114107  .00000292  00000-0  36442-4 0  9992,2 52843  53.2155 163.2949 0001315  88.1540 271.9603 15.08841086105088,6917.877,95.437,540.652,538.832,0.0
52843.0,STARLINK-4188,PAYLOAD,2024-05-09 08:45:13,15.08839229,0.000128,53.2148,158.833,90.4157,269.6982,4.7657e-05,4.71e-06,0.0,0 STARLINK-4188,1 52843U 22062P   24130.36473989  .00000471  00000-0  47657-4 0  9998,2 52843  53.2148 158.8330 0001280  90.4157 269.6982 15.08839229104747,6917.883,95.438,540.633,538.862,0.0
